QIANFAN-81              
1 63167U 25046J   25198.58245444  .00000094  00000+0  12705-3 0  9991
2 63167  88.9847 335.1302 0014842 181.5884 178.5222 13.50956516 27489
QIANFAN-82              
1 63168U 25046K   25198.54117769  .00000114  00000+0  15753-3 0  9995
2 63168  88.9847 335.1779 0012725 188.5261 171.5676 13.50957861 27460
QIANFAN-83              
1 63169U 25046L   25198.58719518  .00000141  00000+0  16730-3 0  9996
2 63169  88.9847 335.2395 0014194 182.3194 177.7899 13.61925828 27437
QIANFAN-84              
1 63170U 25046M   25198.57005931  .00000132  00000+0  18545-3 0  9990
2 63170  88.9847 335.3081 0015795 186.4888 173.6061 13.50957904 27394
QIANFAN-85              
1 63171U 25046N   25198.56594902  .00000113  00000+0  15634-3 0  9996
2 63171  88.9846 335.1809 0013103 187.5815 172.5140 13.50954328 27464
QIANFAN-86              
1 63172U 25046P   25198.57418369  .00000096  00000+0  13059-3 0  9999
2 63172  88.9849 335.0387 0010869 190.2462 169.8469 13.50954432 27541
QIANFAN-87              
1 63173U 25046Q   25198.54526184  .00000052  00000+0  61168-4 0  9999
2 63173  88.9845 335.1589 0011740 185.7173 174.3846 13.50958892 27476
QIANFAN-88              
1 63174U 25046R   25198.56192662  .00000118  00000+0  16492-3 0  9994
2 63174  88.9847 335.1082 0011837 194.1605 165.9216 13.50954729 27504
